[{"OBJECT_NAME":"STARLINK-4627","OBJECT_ID":"2022-107M","EPOCH":"2026-03-09T19:14:58.575840","MEAN_MOTION":15.08844904,"ECCENTRICITY":0.00013873,"INCLINATION":53.2176,"RA_OF_ASC_NODE":248.4218,"ARG_OF_PERICENTER":97.9285,"MEAN_ANOMALY":262.1865,"EPHEMERIS_TYPE":0,"CLASSIFICATION_TYPE":"U","NORAD_CAT_ID":53711,"ELEMENT_SET_NO":999,"REV_AT_EPOCH":19449,"BSTAR":-2.6948948e-5,"MEAN_MOTION_DOT":-7.17e-6,"MEAN_MOTION_DDOT":0},{"OBJECT_NAME":"CZ-11 R\/B","OBJECT_ID":"2018-008G","EPOCH":"2026-03-09T21:32:14.586720","MEAN_MOTION":14.3224485,"ECCENTRICITY":0.03634479,"INCLINATION":98.2374,"RA_OF_ASC_NODE":58.5812,"ARG_OF_PERICENTER":26.4919,"MEAN_ANOMALY":335.4347,"EPHEMERIS_TYPE":0,"CLASSIFICATION_TYPE":"U","NORAD_CAT_ID":43161,"ELEMENT_SET_NO":999,"REV_AT_EPOCH":42445,"BSTAR":0.00036976397,"MEAN_MOTION_DOT":2.03e-5,"MEAN_MOTION_DDOT":0}]
